{
  "type": "FeatureCollection",
  "features": [
    {
      "type": "Feature",
      "properties": {
        "norad_id": 35014,
        "name": "COSMOS 2251 DEB",
        "group": "cosmos-2251-debris",
        "lat": -7.297492682764036,
        "lon": -149.77510949651042,
        "alt_km": 642.9808270802914,
        "timestamp": "2025-12-20T14:38:02.364821+00:00",
        "meta_object_name": "COSMOS 2251 DEB",
        "meta_object_id": "1993-036AGB",
        "meta_epoch": "2025-12-17T09:17:45.359520",
        "meta_mean_motion": 14.75277506,
        "meta_eccentricity": 0.00070196,
        "meta_inclination": 73.9998,
        "meta_ra_of_asc_node": 34.4305,
        "meta_arg_of_pericenter": 212.3979,
        "meta_mean_anomaly": 147.6764,
        "meta_ephemeris_type": 0,
        "meta_classification_type": "U",
        "meta_norad_cat_id": 35014,
        "meta_element_set_no": 999,
        "meta_rev_at_epoch": 71405,
        "meta_bstar": 0.0010947042,
        "meta_mean_motion_dot": 7.39e-05,
        "meta_mean_motion_ddot": 0,
        "tle_line1": "1 35014U 93036AGB 25351.38733055  .00007390  00000+0  10947-2 0  9995",
        "tle_line2": "2 35014  73.9998  34.4305 0007019 212.3979 147.6764 14.75277506714055"
      },
      "geometry": {
        "type": "Point",
        "coordinates": [
          -149.77510949651042,
          -7.297492682764036
        ]
      }
    },
    {
      "type": "Feature",
      "properties": {
        "norad_id": 35015,
        "name": "COSMOS 2251 DEB",
        "group": "cosmos-2251-debris",
        "lat": 43.238478027622506,
        "lon": 24.236751905505884,
        "alt_km": 695.9455834824266,
        "timestamp": "2025-12-20T14:38:02.364838+00:00",
        "meta_object_name": "COSMOS 2251 DEB",
        "meta_object_id": "1993-036AGC",
        "meta_epoch": "2025-12-15T22:56:26.813760",
        "meta_mean_motion": 14.46895598,
        "meta_eccentricity": 0.0074243,
        "meta_inclination": 73.9481,
        "meta_ra_of_asc_node": 228.6843,
        "meta_arg_of_pericenter": 96.6585,
        "meta_mean_anomaly": 285.5342,
        "meta_ephemeris_type": 0,
        "meta_classification_type": "U",
        "meta_norad_cat_id": 35015,
        "meta_element_set_no": 999,
        "meta_rev_at_epoch": 65487,
        "meta_bstar": 0.00054698056,
        "meta_mean_motion_dot": 2.026e-05,
        "meta_mean_motion_ddot": 0,
        "tle_line1": "1 35015U 93036AGC 25349.95586590  .00002026  00000+0  54698-3 0  9999",
        "tle_line2": "2 35015  73.9481 228.6843 0074243  96.6585 285.5342 14.46895598654878"
      },
      "geometry": {
        "type": "Point",
        "coordinates": [
          24.236751905505884,
          43.238478027622506
        ]
      }
    },
    {
      "type": "Feature",
      "properties": {
        "norad_id": 35016,
        "name": "COSMOS 2251 DEB",
        "group": "cosmos-2251-debris",
        "lat": -0.7206684758271508,
        "lon": 100.10748158268669,
        "alt_km": 698.4332240724061,
        "timestamp": "2025-12-20T14:38:02.364851+00:00",
        "meta_object_name": "COSMOS 2251 DEB",
        "meta_object_id": "1993-036AGD",
        "meta_epoch": "2025-12-20T02:10:44.587776",
        "meta_mean_motion": 14.35073352,
        "meta_eccentricity": 0.01141383,
        "meta_inclination": 73.9302,
        "meta_ra_of_asc_node": 280.857,
        "meta_arg_of_pericenter": 196.2798,
        "meta_mean_anomaly": 184.6869,
        "meta_ephemeris_type": 0,
        "meta_classification_type": "U",
        "meta_norad_cat_id": 35016,
        "meta_element_set_no": 999,
        "meta_rev_at_epoch": 86888,
        "meta_bstar": 0.0002031915,
        "meta_mean_motion_dot": 5.96e-06,
        "meta_mean_motion_ddot": 0,
        "tle_line1": "1 35016U 93036AGD 25354.09079384  .00000596  00000+0  20319-3 0  9992",
        "tle_line2": "2 35016  73.9302 280.8570 0114138 196.2798 184.6869 14.35073352868884"
      },
      "geometry": {
        "type": "Point",
        "coordinates": [
          100.10748158268669,
          -0.7206684758271508
        ]
      }
    },
    {
      "type": "Feature",
      "properties": {
        "norad_id": 35018,
        "name": "COSMOS 2251 DEB",
        "group": "cosmos-2251-debris",
        "lat": 19.930937387773895,
        "lon": -88.95821273874043,
        "alt_km": 1240.597072423986,
        "timestamp": "2025-12-20T14:38:02.364861+00:00",
        "meta_object_name": "COSMOS 2251 DEB",
        "meta_object_id": "1993-036AGF",
        "meta_epoch": "2025-12-17T17:22:46.408800",
        "meta_mean_motion": 13.67124195,
        "meta_eccentricity": 0.03487062,
        "meta_inclination": 73.976,
        "meta_ra_of_asc_node": 101.7737,
        "meta_arg_of_pericenter": 9.849,
        "meta_mean_anomaly": 350.9229,
        "meta_ephemeris_type": 0,
        "meta_classification_type": "U",
        "meta_norad_cat_id": 35018,
        "meta_element_set_no": 999,
        "meta_rev_at_epoch": 83254,
        "meta_bstar": 0.00069190439,
        "meta_mean_motion_dot": 8.6e-06,
        "meta_mean_motion_ddot": 0,
        "tle_line1": "1 35018U 93036AGF 25351.72414825  .00000860  00000+0  69190-3 0  9998",
        "tle_line2": "2 35018  73.9760 101.7737 0348706   9.8490 350.9229 13.67124195832546"
      },
      "geometry": {
        "type": "Point",
        "coordinates": [
          -88.95821273874043,
          19.930937387773895
        ]
      }
    },
    {
      "type": "Feature",
      "properties": {
        "norad_id": 35020,
        "name": "COSMOS 2251 DEB",
        "group": "cosmos-2251-debris",
        "lat": -16.970921310945457,
        "lon": 178.8648833314052,
        "alt_km": 643.766423054065,
        "timestamp": "2025-12-20T14:38:02.364871+00:00",
        "meta_object_name": "COSMOS 2251 DEB",
        "meta_object_id": "1993-036AGH",
        "meta_epoch": "2025-12-16T23:43:20.938656",
        "meta_mean_motion": 14.62811627,
        "meta_eccentricity": 0.00912676,
        "meta_inclination": 74.046,
        "meta_ra_of_asc_node": 190.8083,
        "meta_arg_of_pericenter": 304.0673,
        "meta_mean_anomaly": 55.1854,
        "meta_ephemeris_type": 0,
        "meta_classification_type": "U",
        "meta_norad_cat_id": 35020,
        "meta_element_set_no": 999,
        "meta_rev_at_epoch": 88300,
        "meta_bstar": 0.00011860336,
        "meta_mean_motion_dot": 6.08e-06,
        "meta_mean_motion_ddot": 0,
        "tle_line1": "1 35020U 93036AGH 25350.98843679  .00000608  00000+0  11860-3 0  9992",
        "tle_line2": "2 35020  74.0460 190.8083 0091267 304.0673  55.1854 14.62811627883005"
      },
      "geometry": {
        "type": "Point",
        "coordinates": [
          178.8648833314052,
          -16.970921310945457
        ]
      }
    },
    {
      "type": "Feature",
      "properties": {
        "norad_id": 35022,
        "name": "COSMOS 2251 DEB",
        "group": "cosmos-2251-debris",
        "lat": -21.471281335726065,
        "lon": -59.58155262310449,
        "alt_km": 727.4141931765362,
        "timestamp": "2025-12-20T14:38:02.364881+00:00",
        "meta_object_name": "COSMOS 2251 DEB",
        "meta_object_id": "1993-036AGK",
        "meta_epoch": "2025-12-15T14:45:27.251136",
        "meta_mean_motion": 14.60846809,
        "meta_eccentricity": 0.00465822,
        "meta_inclination": 74.027,
        "meta_ra_of_asc_node": 316.4327,
        "meta_arg_of_pericenter": 155.4398,
        "meta_mean_anomaly": 204.9001,
        "meta_ephemeris_type": 0,
        "meta_classification_type": "U",
        "meta_norad_cat_id": 35022,
        "meta_element_set_no": 999,
        "meta_rev_at_epoch": 59185,
        "meta_bstar": 0.00033959453,
        "meta_mean_motion_dot": 1.655e-05,
        "meta_mean_motion_ddot": 0,
        "tle_line1": "1 35022U 93036AGK 25349.61489874  .00001655  00000+0  33959-3 0  9991",
        "tle_line2": "2 35022  74.0270 316.4327 0046582 155.4398 204.9001 14.60846809591850"
      },
      "geometry": {
        "type": "Point",
        "coordinates": [
          -59.58155262310449,
          -21.471281335726065
        ]
      }
    },
    {
      "type": "Feature",
      "properties": {
        "norad_id": 35023,
        "name": "COSMOS 2251 DEB",
        "group": "cosmos-2251-debris",
        "lat": 43.52870323955569,
        "lon": -147.5089488472335,
        "alt_km": 593.2686115516735,
        "timestamp": "2025-12-20T14:38:02.364891+00:00",
        "meta_object_name": "COSMOS 2251 DEB",
        "meta_object_id": "1993-036AGL",
        "meta_epoch": "2025-12-20T00:39:13.692384",
        "meta_mean_motion": 14.95306046,
        "meta_eccentricity": 0.00337518,
        "meta_inclination": 74.0362,
        "meta_ra_of_asc_node": 197.8872,
        "meta_arg_of_pericenter": 274.5878,
        "meta_mean_anomaly": 236.5802,
        "meta_ephemeris_type": 0,
        "meta_classification_type": "U",
        "meta_norad_cat_id": 35023,
        "meta_element_set_no": 999,
        "meta_rev_at_epoch": 88388,
        "meta_bstar": 0.00088317868,
        "meta_mean_motion_dot": 9.819e-05,
        "meta_mean_motion_ddot": 0,
        "tle_line1": "1 35023U 93036AGL 25354.02724181  .00009819  00000+0  88318-3 0  9995",
        "tle_line2": "2 35023  74.0362 197.8872 0033751 274.5878 236.5802 14.95306046883888"
      },
      "geometry": {
        "type": "Point",
        "coordinates": [
          -147.5089488472335,
          43.52870323955569
        ]
      }
    }
  ]
}